[{"OBJECT_NAME":"STARLINK-35448","OBJECT_ID":"2025-262K","EPOCH":"2026-03-09T08:40:05.044800","MEAN_MOTION":15.27582418,"ECCENTRICITY":0.0001587,"INCLINATION":43.0024,"RA_OF_ASC_NODE":298.2429,"ARG_OF_PERICENTER":270.5967,"MEAN_ANOMALY":89.4703,"EPHEMERIS_TYPE":0,"CLASSIFICATION_TYPE":"U","NORAD_CAT_ID":66465,"ELEMENT_SET_NO":999,"REV_AT_EPOCH":1885,"BSTAR":0.00083349877,"MEAN_MOTION_DOT":0.00022746,"MEAN_MOTION_DDOT":0},{"OBJECT_NAME":"OKEAN-1","OBJECT_ID":"1988-056A","EPOCH":"2026-03-09T21:19:04.260000","MEAN_MOTION":15.31672069,"ECCENTRICITY":0.00129431,"INCLINATION":82.4671,"RA_OF_ASC_NODE":262.7586,"ARG_OF_PERICENTER":168.0696,"MEAN_ANOMALY":192.0855,"EPHEMERIS_TYPE":0,"CLASSIFICATION_TYPE":"U","NORAD_CAT_ID":19274,"ELEMENT_SET_NO":999,"REV_AT_EPOCH":3511,"BSTAR":0.00038371192,"MEAN_MOTION_DOT":0.00011798,"MEAN_MOTION_DDOT":0}]
